*******************************************************************************
Ephemeris / WWW_USER Mon Mar 24 09:22:38 2025 Pasadena, USA      / Horizons    
*******************************************************************************
Target body name: (2017 UW51)                     {source: JPL#9}
Center body name: Earth (399)                     {source: DE441}
Center-site name: Mauna Kea
*******************************************************************************
Start time      : A.D. 2019-Jan-19 04:15:00.0000 UT      
Stop  time      : A.D. 2019-Jan-19 16:49:00.0000 UT      
Step-size       : 1 minutes
*******************************************************************************
Target pole/equ : undefined
Target radii    : undefined                                                    
Center geodetic : 204.5278, 19.8260847, 4.21024   {E-lon(deg),Lat(deg),Alt(km)}
Center cylindric: 204.5278, 6006.35451, 2151.0229 {E-lon(deg),Dxy(km),Dz(km)}
Center pole/equ : ITRF93                          {East-longitude positive}
Center radii    : 6378.137, 6378.137, 6356.752 km {Equator_a, b, pole_c}       
Target primary  : Sun
Vis. interferer : MOON (R_eq= 1737.400) km        {source: DE441}
Rel. light bend : Sun                             {source: DE441}
Rel. lght bnd GM: 1.3271E+11 km^3/s^2                                          
Small-body perts: Yes                             {source: SB441-N16}
Atmos refraction: NO (AIRLESS)
RA format       : HMS
Time format     : CAL 
Calendar mode   : Mixed Julian/Gregorian
RTS-only print  : NO       
EOP file        : eop.250321.p250617                                           
EOP coverage    : DATA-BASED 1962-JAN-20 TO 2025-MAR-21. PREDICTS-> 2025-JUN-16
Units conversion: 1 au= 149597870.700 km, c= 299792.458 km/s, 1 day= 86400.0 s 
Table cut-offs 1: Elevation (-90.0deg=NO ),Airmass (>38.000=NO), Daylight (YES)
Table cut-offs 2: Solar elongation (  0.0,180.0=NO ),Local Hour Angle( 0.0=NO )
Table cut-offs 3: RA/DEC angular rate (     0.0=NO )                           
*******************************************************************************
Initial IAU76/J2000 heliocentric ecliptic osculating elements (au, days, deg.):
  EPOCH=  2458075.5 ! 2017-Nov-18.00 (TDB)         Residual RMS= .20188        
   EC= .977323227404683    QR= 3.132710376610715   TP= 2458155.1551369466      
   OM= 241.7154477774366   W=  216.6888678209022   IN= 144.2025603349357       
  Equivalent ICRF heliocentric cartesian coordinates (au, au/d):
   X= 2.139353138138251E+00  Y= 2.375029509283225E+00  Z= 4.232007070438896E-01
  VX= 5.707101564767909E-03 VY=-6.350221743649190E-03 VZ=-1.041670648532765E-02
Asteroid physical parameters (km, seconds, rotational period in hours):        
   GM= n.a.                RAD= n.a.               ROTPER= n.a.                
   H= 15.3                 G= .150                 B-V= n.a.                   
                           ALBEDO= n.a.            STYP= n.a.                  
*******************************************************************************
 Date__(UT)__HR:MN     R.A._________(ICRF)_________DEC
******************************************************
$$SOE
 2019-Jan-19 14:30  m  21 38 46.564414 -44 37 14.12886
 2019-Jan-19 14:31  m  21 38 46.580866 -44 37 13.97398
 2019-Jan-19 14:32  m  21 38 46.597317 -44 37 13.81912
 2019-Jan-19 14:33  m  21 38 46.613766 -44 37 13.66428
 2019-Jan-19 14:34  m  21 38 46.630213 -44 37 13.50946
 2019-Jan-19 14:35  m  21 38 46.646659 -44 37 13.35465
 2019-Jan-19 14:36  m  21 38 46.663103 -44 37 13.19987
 2019-Jan-19 14:37  m  21 38 46.679546 -44 37 13.04511
 2019-Jan-19 14:38  m  21 38 46.695988 -44 37 12.89036
 2019-Jan-19 14:39  m  21 38 46.712427 -44 37 12.73563
 2019-Jan-19 14:40  m  21 38 46.728865 -44 37 12.58093
 2019-Jan-19 14:41  m  21 38 46.745302 -44 37 12.42624
 2019-Jan-19 14:42  m  21 38 46.761736 -44 37 12.27157
 2019-Jan-19 14:43  m  21 38 46.778170 -44 37 12.11692
 2019-Jan-19 14:44  m  21 38 46.794601 -44 37 11.96228
 2019-Jan-19 14:45  m  21 38 46.811031 -44 37 11.80767
 2019-Jan-19 14:46  m  21 38 46.827459 -44 37 11.65307
 2019-Jan-19 14:47  m  21 38 46.843886 -44 37 11.49849
 2019-Jan-19 14:48  m  21 38 46.860311 -44 37 11.34393
 2019-Jan-19 14:49  m  21 38 46.876734 -44 37 11.18939
 2019-Jan-19 14:50  m  21 38 46.893156 -44 37 11.03487
 2019-Jan-19 14:51  m  21 38 46.909576 -44 37 10.88036
 2019-Jan-19 14:52  m  21 38 46.925994 -44 37 10.72587
 2019-Jan-19 14:53  m  21 38 46.942410 -44 37 10.57141
 2019-Jan-19 14:54  m  21 38 46.958825 -44 37 10.41695
 2019-Jan-19 14:55  m  21 38 46.975238 -44 37 10.26252
 2019-Jan-19 14:56  m  21 38 46.991649 -44 37 10.10810
 2019-Jan-19 14:57  m  21 38 47.008059 -44 37 09.95371
 2019-Jan-19 14:58  m  21 38 47.024466 -44 37 09.79933
 2019-Jan-19 14:59  m  21 38 47.040872 -44 37 09.64496
 2019-Jan-19 15:00  m  21 38 47.057276 -44 37 09.49062
 2019-Jan-19 15:01  m  21 38 47.073679 -44 37 09.33629
 2019-Jan-19 15:02  m  21 38 47.090079 -44 37 09.18198
 2019-Jan-19 15:03  m  21 38 47.106478 -44 37 09.02769
 2019-Jan-19 15:04  m  21 38 47.122875 -44 37 08.87341
 2019-Jan-19 15:05  m  21 38 47.139270 -44 37 08.71916
 2019-Jan-19 15:06  m  21 38 47.155663 -44 37 08.56492
 2019-Jan-19 15:07  m  21 38 47.172055 -44 37 08.41069
 2019-Jan-19 15:08  m  21 38 47.188444 -44 37 08.25648
 2019-Jan-19 15:09  m  21 38 47.204832 -44 37 08.10230
 2019-Jan-19 15:10  m  21 38 47.221218 -44 37 07.94812
 2019-Jan-19 15:11  m  21 38 47.237602 -44 37 07.79397
 2019-Jan-19 15:12  m  21 38 47.253984 -44 37 07.63983
 2019-Jan-19 15:13  m  21 38 47.270364 -44 37 07.48571
 2019-Jan-19 15:14  m  21 38 47.286743 -44 37 07.33160
 2019-Jan-19 15:15  m  21 38 47.303119 -44 37 07.17751
 2019-Jan-19 15:16  m  21 38 47.319493 -44 37 07.02344
 2019-Jan-19 15:17  m  21 38 47.335866 -44 37 06.86938
 2019-Jan-19 15:18  m  21 38 47.352237 -44 37 06.71534
 2019-Jan-19 15:19  m  21 38 47.368605 -44 37 06.56132
 2019-Jan-19 15:20  m  21 38 47.384972 -44 37 06.40731
 2019-Jan-19 15:21  m  21 38 47.401337 -44 37 06.25332
 2019-Jan-19 15:22  m  21 38 47.417699 -44 37 06.09935
 2019-Jan-19 15:23  m  21 38 47.434060 -44 37 05.94539
 2019-Jan-19 15:24  m  21 38 47.450419 -44 37 05.79144
 2019-Jan-19 15:25  m  21 38 47.466776 -44 37 05.63752
 2019-Jan-19 15:26  m  21 38 47.483131 -44 37 05.48361
 2019-Jan-19 15:27  m  21 38 47.499483 -44 37 05.32971
 2019-Jan-19 15:28  m  21 38 47.515834 -44 37 05.17583
 2019-Jan-19 15:29  m  21 38 47.532183 -44 37 05.02197
 2019-Jan-19 15:30  m  21 38 47.548530 -44 37 04.86812
 2019-Jan-19 15:31  m  21 38 47.564874 -44 37 04.71429
 2019-Jan-19 15:32  m  21 38 47.581217 -44 37 04.56047
 2019-Jan-19 15:33  m  21 38 47.597558 -44 37 04.40667
 2019-Jan-19 15:34  m  21 38 47.613896 -44 37 04.25288
 2019-Jan-19 15:35  m  21 38 47.630233 -44 37 04.09911
 2019-Jan-19 15:36  m  21 38 47.646567 -44 37 03.94535
 2019-Jan-19 15:37  m  21 38 47.662899 -44 37 03.79161
 2019-Jan-19 15:38  m  21 38 47.679229 -44 37 03.63789
 2019-Jan-19 15:39  m  21 38 47.695558 -44 37 03.48417
 2019-Jan-19 15:40     21 38 47.711884 -44 37 03.33048
 2019-Jan-19 15:41     21 38 47.728207 -44 37 03.17680
 2019-Jan-19 15:42     21 38 47.744529 -44 37 03.02313
 2019-Jan-19 15:43 A   21 38 47.760849 -44 37 02.86948
 2019-Jan-19 15:44 A   21 38 47.777166 -44 37 02.71584
 2019-Jan-19 15:45 A   21 38 47.793482 -44 37 02.56221
 2019-Jan-19 15:46 A   21 38 47.809795 -44 37 02.40861
 2019-Jan-19 15:47 A   21 38 47.826106 -44 37 02.25501
 2019-Jan-19 15:48 A   21 38 47.842415 -44 37 02.10143
 2019-Jan-19 15:49 A   21 38 47.858721 -44 37 01.94786
 2019-Jan-19 15:50 A   21 38 47.875026 -44 37 01.79431
 2019-Jan-19 15:51 A   21 38 47.891328 -44 37 01.64077
 2019-Jan-19 15:52 A   21 38 47.907628 -44 37 01.48725
 2019-Jan-19 15:53 A   21 38 47.923926 -44 37 01.33374
 2019-Jan-19 15:54 A   21 38 47.940222 -44 37 01.18024
 2019-Jan-19 15:55 A   21 38 47.956516 -44 37 01.02676
 2019-Jan-19 15:56 A   21 38 47.972807 -44 37 00.87329
 2019-Jan-19 15:57 A   21 38 47.989096 -44 37 00.71983
 2019-Jan-19 15:58 A   21 38 48.005383 -44 37 00.56639
 2019-Jan-19 15:59 A   21 38 48.021667 -44 37 00.41296
 2019-Jan-19 16:00 A   21 38 48.037950 -44 37 00.25955
 2019-Jan-19 16:01 A   21 38 48.054230 -44 37 00.10615
 2019-Jan-19 16:02 A   21 38 48.070508 -44 36 59.95276
 2019-Jan-19 16:03 A   21 38 48.086783 -44 36 59.79938
 2019-Jan-19 16:04 A   21 38 48.103057 -44 36 59.64602
 2019-Jan-19 16:05 A   21 38 48.119328 -44 36 59.49267
 2019-Jan-19 16:06 A   21 38 48.135596 -44 36 59.33933
 2019-Jan-19 16:07 A   21 38 48.151863 -44 36 59.18601
 2019-Jan-19 16:08 A   21 38 48.168127 -44 36 59.03269
 2019-Jan-19 16:09 A   21 38 48.184389 -44 36 58.87940
 2019-Jan-19 16:10 N   21 38 48.200648 -44 36 58.72611
 2019-Jan-19 16:11 N   21 38 48.216906 -44 36 58.57284
 2019-Jan-19 16:12 N   21 38 48.233161 -44 36 58.41957
 2019-Jan-19 16:13 N   21 38 48.249413 -44 36 58.26632
 2019-Jan-19 16:14 N   21 38 48.265663 -44 36 58.11309
 2019-Jan-19 16:15 N   21 38 48.281911 -44 36 57.95986
 2019-Jan-19 16:16 N   21 38 48.298157 -44 36 57.80665
 2019-Jan-19 16:17 N   21 38 48.314400 -44 36 57.65345
 2019-Jan-19 16:18 N   21 38 48.330641 -44 36 57.50026
 2019-Jan-19 16:19 N   21 38 48.346880 -44 36 57.34708
 2019-Jan-19 16:20 N   21 38 48.363116 -44 36 57.19392
 2019-Jan-19 16:21 N   21 38 48.379350 -44 36 57.04076
 2019-Jan-19 16:22 N   21 38 48.395581 -44 36 56.88762
 2019-Jan-19 16:23 N   21 38 48.411810 -44 36 56.73449
 2019-Jan-19 16:24 N   21 38 48.428037 -44 36 56.58137
 2019-Jan-19 16:25 N   21 38 48.444261 -44 36 56.42826
 2019-Jan-19 16:26 N   21 38 48.460483 -44 36 56.27517
 2019-Jan-19 16:27 N   21 38 48.476702 -44 36 56.12208
 2019-Jan-19 16:28 N   21 38 48.492919 -44 36 55.96901
 2019-Jan-19 16:29 N   21 38 48.509134 -44 36 55.81594
 2019-Jan-19 16:30 N   21 38 48.525346 -44 36 55.66289
 2019-Jan-19 16:31 N   21 38 48.541556 -44 36 55.50985
 2019-Jan-19 16:32 N   21 38 48.557763 -44 36 55.35682
